{
    "links": {
        "self": "http://www.neowsapp.com/rest/v1/neo/3719240?api_key=iIulBulltgU6a56xZRHN4H3l9WmuAYTsLGpBGhQ2"
    },
    "id": "3719240",
    "neo_reference_id": "3719240",
    "name": "(2015 KG)",
    "designation": "2015 KG",
    "nasa_jpl_url": "http://ssd.jpl.nasa.gov/sbdb.cgi?sstr=3719240",
    "absolute_magnitude_h": 26.9,
    "estimated_diameter": {
        "kilometers": {
            "estimated_diameter_min": 0.0110803882,
            "estimated_diameter_max": 0.0247765013
        },
        "meters": {
            "estimated_diameter_min": 11.0803882126,
            "estimated_diameter_max": 24.7765012606
        },
        "miles": {
            "estimated_diameter_min": 0.0068850319,
            "estimated_diameter_max": 0.0153953994
        },
        "feet": {
            "estimated_diameter_min": 36.3529808636,
            "estimated_diameter_max": 81.2877363957
        }
    },
    "is_potentially_hazardous_asteroid": false,
    "close_approach_data": [
        {
            "close_approach_date": "2001-03-23",
            "close_approach_date_full": "2001-Mar-23 23:32",
            "epoch_date_close_approach": 985390320000,
            "relative_velocity": {
                "kilometers_per_second": "16.7316263963",
                "kilometers_per_hour": "60233.8550267574",
                "miles_per_hour": "37426.9750859316"
            },
            "miss_distance": {
                "astronomical": "0.3957303131",
                "lunar": "153.9390917959",
                "kilometers": "59200411.934193097",
                "miles": "36785430.2128428586"
            },
            "orbiting_body": "Earth"
        },
        {
            "close_approach_date": "2015-05-18",
            "close_approach_date_full": "2015-May-18 04:52",
            "epoch_date_close_approach": 1431924720000,
            "relative_velocity": {
                "kilometers_per_second": "5.184726826",
                "kilometers_per_hour": "18665.0165736294",
                "miles_per_hour": "11597.7154370977"
            },
            "miss_distance": {
                "astronomical": "0.0368329208",
                "lunar": "14.3280061912",
                "kilometers": "5510126.497558696",
                "miles": "3423833.8402981648"
            },
            "orbiting_body": "Earth"
        },
        {
            "close_approach_date": "2022-06-22",
            "close_approach_date_full": "2022-Jun-22 21:11",
            "epoch_date_close_approach": 1655932260000,
            "relative_velocity": {
                "kilometers_per_second": "12.1777024123",
                "kilometers_per_hour": "43839.7286841479",
                "miles_per_hour": "27240.3025259918"
            },
            "miss_distance": {
                "astronomical": "0.2427679826",
                "lunar": "94.4367452314",
                "kilometers": "36317573.101157062",
                "miles": "22566693.4935769756"
            },
            "orbiting_body": "Earth"
        },
        {
            "close_approach_date": "2090-07-09",
            "close_approach_date_full": "2090-Jul-09 21:57",
            "epoch_date_close_approach": 3803320620000,
            "relative_velocity": {
                "kilometers_per_second": "19.5886574522",
                "kilometers_per_hour": "70519.1668278037",
                "miles_per_hour": "43817.8678547539"
            },
            "miss_distance": {
                "astronomical": "0.4872391674",
                "lunar": "189.5360361186",
                "kilometers": "72889941.623613438",
                "miles": "45291709.5204359244"
            },
            "orbiting_body": "Earth"
        }
    ],
    "orbital_data": {
        "orbit_id": "6",
        "orbit_determination_date": "2017-04-06 08:33:43",
        "first_observation_date": "2015-05-18",
        "last_observation_date": "2015-05-24",
        "data_arc_in_days": 6,
        "observations_used": 42,
        "orbit_uncertainty": "7",
        "minimum_orbit_intersection": ".034544",
        "jupiter_tisserand_invariant": "4.010",
        "epoch_osculation": "2459000.5",
        "eccentricity": ".4086234979839486",
        "semi_major_axis": "1.76608593446463",
        "inclination": ".56946516772974",
        "ascending_node_longitude": "207.0876587069498",
        "orbital_period": "857.2671348523508",
        "perihelion_distance": "1.044421722183442",
        "perihelion_argument": "22.17285860221061",
        "aphelion_distance": "2.487750146745817",
        "perihelion_time": "2458868.950563478017",
        "mean_anomaly": "55.24275365586058",
        "mean_motion": ".4199391127504307",
        "equinox": "J2000",
        "orbit_class": {
            "orbit_class_type": "AMO",
            "orbit_class_description": "Near-Earth asteroid orbits similar to that of 1221 Amor",
            "orbit_class_range": "1.017 AU < q (perihelion) < 1.3 AU"
        }
    },
    "is_sentry_object": false
}